EVENT_NAME: 202302060117
EVENT_ID: -1
EVENT_DATE_YYYYMMDD: 20230206
EVENT_TIME_HHMMSS: 011732
EVENT_LATITUDE_DEGREE: 37.288
EVENT_LONGITUDE_DEGREE: 37.043
EVENT_DEPTH_KM: 8.6
HYPOCENTER_REFERENCE: AFAD
MAGNITUDE_W: 7.7
MAGNITUDE_W_REFERENCE: AFAD
MAGNITUDE_L: 
MAGNITUDE_L_REFERENCE: 
FOCAL_MECHANISM: 
NETWORK: TK
STATION_CODE: 3116
STATION_NAME: 
STATION_LATITUDE_DEGREE: 36.61618
STATION_LONGITUDE_DEGREE: 36.20661
STATION_ELEVATION_M: 33.0
LOCATION: Kahramanmaras_Pazarck_Turkiye
SENSOR_DEPTH_M: 
VS30_M/S: 870
SITE_CLASSIFICATION_EC8: A
MORPHOLOGIC_CLASSIFICATION: 
EPICENTRAL_DISTANCE_KM: 105.38
EARTHQUAKE_BACKAZIMUTH_DEGREE: 
DATE_TIME_FIRST_SAMPLE_YYYYMMDD_HHMMSS: 20230206_011730
DATE_TIME_FIRST_SAMPLE_PRECISION: millisecond
SAMPLING_INTERVAL_S: 0.01
NDATA: 12500
DURATION_S: 
STREAM: HNE
UNITS: cm/s^2
INSTRUMENT: sensor = CMG-5T/GURALP | digitizer = 
INSTRUMENT_ANALOG/DIGITAL: 
INSTRUMENTAL_FREQUENCY_HZ: 
INSTRUMENTAL_DAMPING: 
FULL_SCALE_G: 
N_BIT_DIGITAL_CONVERTER: 
PGA_CM/S^2: 161.787
TIME_PGA_S: 
BASELINE_CORRECTION: BASELINE REMOVED
FILTER_TYPE: BUTTERWORTH
FILTER_ORDER: 2
LOW_CUT_FREQUENCY_HZ: 0.016
HIGH_CUT_FREQUENCY_HZ: 33.0
LATE/NORMAL_TRIGGERED: NT
DATABASE_VERSION: 
HEADER_FORMAT: DYNA 1.2
DATA_TYPE: Acceleration
PROCESSING: Manual Paolucci et al., 2011
DATA_TIMESTAMP_YYYYMMDD_HHMMSS: 
DATA_LICENSE: U (unknown license)
DATA_CITATION: Turkish Accelerometric Archive v 1.0 - Disaster And Emergency Management Presidency, Earthquake Department
DATA_CREATOR: AFAD
ORIGINAL_DATA_MEDIATOR_CITATION: : AFAD - Disaster And Emergency Management Presidency
ORIGINAL_DATA_MEDIATOR: AFAD PROCESS SERVICE
ORIGINAL_DATA_CREATOR_CITATION: AFAD PROCESS SERVICE
ORIGINAL_DATA_CREATOR: network: TK
USER1: GuestUser
USER2: 
USER3: 
USER4: 
USER5: 
[...]
11.285402
13.739537
6.736287
-2.959312
-8.638938
-11.664618
-13.708626
-11.711524
-7.596228
-8.335580
-13.551918
-17.322185
-16.959906
-12.026489
-4.826571
-0.978993
-0.758274
1.523802
6.426960
11.005063
16.196328
20.266732
18.160721
11.385349
5.172499
1.438173
-0.114057
-0.699642
-1.741942
-4.414029
-8.771700
-12.165182
-12.046025
-9.435470
-7.778682
-8.085598
-7.068713
-4.306825
-3.547328
-3.871150
-2.374365
-1.144957
-1.170670
-0.764718
-1.639401
-3.836737
-2.900578
0.604601
2.390723
2.629109
2.009389
-0.168680
-2.214266
-3.663850
-6.138654
-7.585651
-4.046056
3.730585
10.357583
11.245615
6.285526
-0.576651
-4.763701
-5.984673
-8.644813
-14.147742
-17.286708
-14.453133
-8.188878
-2.255075
0.672434
0.670478
1.532876
3.110231
0.880610
-2.325287
0.613559
7.083390
9.246439
6.085484
0.384927
-5.089542
-6.084267
-3.362584
-3.463698
-6.076402
-4.279286
1.422238
3.536396
1.230952
0.832514
3.353145
3.513223
-0.138738
-2.949245
0.407682
9.353805
15.820684
15.288452
13.415990
14.263399
14.222155
10.962283
6.072050
1.090845
-2.462367
-3.676659
-3.136478
-1.740701
-1.359812
-3.019617
-3.908728
-2.357997
-1.240182
-1.692555
-1.337959
-1.052629
-4.531247
-9.031469
-7.413395
-1.248517
1.814035
1.918123
4.111638
7.417573
7.154937
2.749732
-1.639904
-2.089740
0.482801
1.343238
-1.765247
-5.739382
-6.088434
-1.971568
2.253494
2.605187
2.053264
4.357118
6.685435
6.079644
2.855490
-2.625706
-6.499802
-4.919151
-2.878510
-5.302067
-7.716937
-4.396271
4.185997
11.502701
11.738388
8.197427
5.453124
0.511137
-7.570945
-14.052152
-15.736378
-11.504303
-3.829526
1.187040
2.452183
3.431106
3.542668
0.485774
-3.697843
-6.292460
-6.947030
-4.137252
0.794260
0.812078
-3.073912
-0.931752
7.605998
13.905500
13.423550
7.875045
3.272579
2.367997
0.240556
-5.284055
-11.558282
-18.141299
-22.076548
-18.191160
-7.968969
4.898154
17.799922
23.876270
19.132121
9.118828
0.123224
-5.603491
-6.891913
-5.311643
-4.905871
-5.448430
-3.308799
0.546103
3.321803
6.879059
12.429768
16.872201
18.269330
16.268012
9.717440
-0.073042
-8.538854
-10.904728
-5.169213
4.822127
11.653169
10.249565
2.656161
-2.108644
1.125048
8.102843
13.042620
11.788669
2.302610
-11.290757
-21.807004
-25.884545
-25.031403
-22.215897
-17.880343
-8.731896
6.534867
20.075310
22.441396
16.093403
10.012569
8.206256
10.643058
14.151544
14.488253
14.489662
19.272358
25.318199
25.824640
19.639151
11.421814
7.481496
8.555775
9.628743
7.512421
1.517812
-9.273439
-23.664841
-35.609550
-37.793477
-31.360792
-25.840998
-24.296586
-19.779281
-8.902922
3.737435
13.439773
19.847426
24.216001
23.882773
16.163272
7.154291
4.328234
7.201290
12.904944
17.218208
13.540328
3.677013
-2.578190
-2.165935
1.862864
7.670294
11.076338
9.452433
8.003863
9.838738
10.931972
8.894378
6.353559
6.810451
9.972898
11.451110
7.647308
0.324481
-3.246537
1.119246
7.413853
8.315870
5.108819
2.909445
0.877023
-5.564690
-11.228656
-5.851784
7.039881
17.965349
23.982524
19.168381
2.115180
-10.281887
-5.143227
6.411168
9.490110
6.604084
5.441512
4.076977
1.020099
0.687305
2.299975
0.257401
-6.155508
-12.766707
-15.286283
-11.106185
-4.077728
-5.368292
-13.730887
-12.269869
-2.512406
-2.013565
-9.229884
-13.926706
-14.798709
-10.193280
-2.242742
4.142186
10.805504
14.381031
9.215789
4.722722
9.241760
16.043573
20.966027
25.048284
23.709259
15.996877
10.409058
10.452417
7.369237
-5.257529
-20.407087
-31.138715
-38.061228
-36.976277
-24.797599
-11.347971
-2.868626
5.815275
13.265610
11.462490
4.401542
3.248327
5.629333
3.265772
-0.899283
-6.176003
-17.885117
-28.105598
-23.153580
-2.923346
19.536684
32.599618
38.450891
38.329411
29.098056
22.854935
22.919670
14.265509
-0.801826
-15.596254
-25.913692
-16.678526
1.796889
6.993444
-2.277635
-27.258916
-47.055057
-31.922930
-4.867571
7.104074
10.536971
7.834715
6.748937
15.673581
21.364314
16.141512
1.657691
-20.157332
-36.082078
-38.584696
-28.020650
-3.047795
13.169039
0.301026
-11.584313
0.526155
12.454290
10.153403
6.365823
8.059254
14.429267
22.448685
24.328220
12.817806
-8.685956
-24.534445
-24.714297
-17.737477
-16.340894
-19.435010
-16.791226
-9.511652
-7.543292
-8.055698
-4.944995
-5.846517
-14.731415
-19.758978
-11.188000
4.608748
15.979914
19.121201
14.387494
6.784190
5.791191
8.879497
5.630802
-4.126746
-15.871901
-25.341291
-28.456505
-27.098062
-22.709367
-16.055026
-12.891996
-10.784966
-2.136744
5.751243
3.841447
-1.298066
-4.608662
-6.582182
0.029712
11.642741
10.075963
-1.843332
-7.051607
-5.592210
-3.884209
-0.953101
4.335917
7.485542
2.624672
-7.455720
-17.532505
-26.752040
-29.988883
-26.490188
-22.692758
-13.480305
4.396274
16.646628
16.586971
12.072577
7.799334
6.608951
10.062985
14.374856
18.681748
22.991755
22.762847
20.111202
19.790437
17.155108
12.122759
9.845018
5.988146
0.998784
3.779276
10.298883
10.808340
9.677270
15.420623
22.053811
16.401820
-3.132395
-24.701539
-33.937165
-31.553456
-32.449652
-36.445112
-32.377517
-24.514313
-20.388306
-19.403328
-18.379655
-10.391908
1.925780
3.103327
-8.815444
-18.291316
-15.750547
-6.033746
0.670128
-1.931373
-9.978845
-14.335779
-14.056857
-14.046354
-15.470993
-15.956247
-11.078651
-3.643219
-4.584661
-12.289789
-16.013206
-17.001191
-21.479795
-25.728755
-19.443893
-1.854131
14.614226
25.810860
36.947874
43.876304
43.515037
40.879949
36.174172
31.286243
32.041883
33.779813
29.481444
23.772639
21.394216
19.786275
19.293117
19.691473
14.833729
5.780190
-2.489773
-14.087113
-27.986489
-33.136564
-29.017621
-22.824426
-15.081639
-7.758944
-4.733856
-1.969181
5.067281
13.621929
17.596680
16.229073
17.884516
25.006044
26.731077
19.657095
13.803002
12.959322
13.807321
16.912350
20.712482
21.109648
18.942289
14.766994
8.537119
5.494789
9.487961
14.071252
9.034342
-1.691667
-5.020280
-2.280631
-0.165722
2.459700
0.964955
-7.265215
-14.206680
-18.601287
-22.545276
-24.553876
-26.865922
-27.323345
-22.977471
-21.810105
-25.372932
-24.338540
-19.257945
-14.553167
-6.351896
2.340417
4.424847
4.743062
3.896827
-4.820506
-14.181356
-14.453337
-8.390205
1.136901
13.337774
22.990141
24.151894
15.566826
5.569036
5.085320
10.159413
10.508064
7.491194
5.294694
5.796432
9.534319
9.251090
3.311503
0.387575
0.218036
-1.882075
-5.645419
-12.455133
-18.709899
-15.042172
-3.593634
4.688261
8.537454
12.193379
15.819971
25.772798
42.705698
47.723431
42.063549
46.323965
48.155978
34.365499
28.915890
40.102949
48.826030
49.289273
44.750238
37.631359
30.492046
17.775349
1.152917
-4.502974
-0.263304
-3.007361
-16.517909
-28.213829
-27.536561
-19.286870
-13.062910
-6.329724
2.214695
3.304128
-4.074759
-10.493368
-9.075132
0.317758
10.343276
14.403565
13.649729
10.736411
6.967786
3.204558
-3.720155
-15.140808
-19.809645
-11.017331
-5.812558
-15.904523
-26.014120
-25.584981
-22.321194
-20.243751
-19.154814
-21.895679
-25.151952
-24.901748
-26.085721
-27.592492
-23.411797
-19.863264
-17.781723
-8.019588
-0.843798
-6.553648
-9.150445
-2.358321
1.178672
0.383844
0.269987
3.104004
9.388152
10.671224
3.753290
-3.748699
-10.044007
-14.370279
-12.692337
-8.182837
-4.535630
3.490326
15.489182
19.763543
19.286830
27.589554
36.427212
34.911482
28.965645
19.098213
8.978818
11.406684
21.157079
26.267255
31.104761
41.681849
50.872187
46.049213
27.679824
13.638744
14.076436
13.839839
-0.185966
-15.149292
-18.608780
-12.171991
1.263708
10.675374
11.926421
17.805537
24.012534
20.902578
18.986900
21.943794
23.282221
22.507498
21.270973
20.244511
11.936580
-6.313956
-16.382562
-10.303629
-5.816002
-19.625680
-49.725716
-77.564108
-90.101726
-92.686193
-93.420360
-95.146854
-94.754308
-84.984566
-68.405083
-54.123601
-38.497410
-12.447492
15.747222
31.977618
37.860056
39.799901
41.917511
42.985863
31.327886
11.860038
3.569606
5.007306
9.742553
16.630929
18.727585
18.882271
21.611729
20.174858
15.107696
10.159861
3.442156
-5.026056
-17.866512
-33.358559
-38.333623
-30.638989
-21.642700
-15.068278
-11.483969
-13.311671
-15.548766
-15.309612
-17.451336
-22.983071
-27.392178
-23.699361
-13.738493
-9.779164
-7.962251
1.484510
8.036520
5.375144
1.069386
2.807855
15.624997
21.796508
1.317363
-25.067506
-37.008624
-46.178513
-56.015132
-58.364778
-57.993973
-59.841194
-56.247005
-42.953750
-30.204905
-25.965935
-22.385390
-12.332064
-5.184575
-9.165458
-13.655183
-9.488513
-2.030086
8.176941
23.118811
33.358204
36.776715
43.104874
48.174293
43.845348
40.635208
45.514128
51.989224
60.399692
68.731732
67.326234
58.811422
49.284208
37.328583
27.539712
24.060597
21.503689
18.990193
16.702491
6.500922
-9.073039
-16.359497
-17.473645
-22.775902
-28.410371
-28.847690
-29.975027
-33.476625
-31.075089
-24.182468
-23.343580
-27.085744
-25.107363
-11.123401
9.950409
21.103497
18.687547
17.137752
18.317584
13.924259
1.192114
-17.165784
-28.436218
-27.134983
-27.777934
-38.988789
-55.928888
-71.391350
-77.783773
-77.406058
-78.136068
-77.640980
-72.099207
-64.954399
-61.754918
-67.026074
-81.047374
-96.878900
-102.099005
-90.735758
-73.734469
-66.724272
-70.478126
-71.304310
-61.974691
-50.743742
-42.497409
-31.061914
-13.745333
2.999279
15.935689
34.903100
63.855553
87.742866
97.214205
96.152780
85.812709
68.090781
49.212253
31.376649
11.793825
-6.025433
-13.937365
-18.328073
-26.248240
-28.424462
-26.422025
-27.137493
-21.265099
-13.370169
-16.223149
-18.764810
-16.206995
-21.599334
-34.845150
-48.643425
-64.411448
-86.629718
-111.621156
-127.000968
-134.397004
-145.546291
-155.476950
-158.254388
-159.171147
-157.623534
-152.468088
-149.253673
-147.711509
-136.801337
-105.024809
-56.267299
-8.688931
26.887821
49.025430
50.762923
35.379540
26.647385
35.370734
46.725189
41.679460
16.545051
-10.925722
-30.586293
-50.467431
-67.904556
-79.854860
-92.432395
-100.060846
-100.823548
-99.985392
-82.426019
-37.059950
10.341200
35.274974
47.014014
57.905838
70.639824
87.775520
99.239536
102.961585
120.517432
144.135743
126.216990
55.538427
-9.857557
-16.445928
20.267936
56.514192
76.473124
87.399223
96.658915
104.939424
115.377249
125.989944
117.613897
86.965600
58.501337
40.548335
18.834521
-12.197460
-47.694920
-82.565372
-108.324401
-119.380377
-122.552119
-125.849633
-128.855851
-126.640074
-114.907916
-99.803767
-92.700975
-94.654453
-100.963510
-103.592971
-96.636546
-89.166906
-83.131258
-64.657330
-36.434130
-12.983973
2.618468
10.908394
15.531896
24.906319
36.624431
41.941722
41.361537
38.989170
39.118942
47.981304
63.525294
77.098189
84.531290
88.962780
102.134166
126.604004
144.717894
149.786787
150.425520
138.934593
102.907625
54.186464
16.957031
0.480666
-3.765405
-5.227792
-9.065178
-14.470034
-4.860491
25.990842
44.923502
29.201260
7.848172
10.759359
36.290008
75.974415
114.798530
126.519559
106.244991
81.851071
65.972011
43.787595
25.496015
32.501665
49.571711
54.724248
47.540692
35.471640
21.314518
0.026252
-24.573634
-41.664466
-53.796079
-66.811429
-79.494443
-87.630446
-89.255919
-91.555721
-102.197344
-116.003371
-116.346393
-97.182227
-78.320592
-76.475761
-89.401119
-111.268521
-122.717527
-99.470180
-51.231312
-12.685050
0.521842
2.802517
5.890172
3.696310
3.448417
19.556632
31.817465
18.180137
-0.242068
-8.073446
-20.818381
-34.945196
-37.957769
-44.484344
-59.099804
-54.037622
-14.792057
32.304709
62.016370
79.638287
79.802317
49.420195
12.543852
-6.518641
-12.167523
-10.274534
-12.773009
-26.842720
-41.015664
-57.053798
-73.245651
-64.167114
-28.718647
11.343735
46.350747
68.188632
81.095818
100.839172
114.344932
106.057948
91.641479
76.738891
56.887956
49.433644
54.285940
48.234674
43.605392
60.144066
75.664874
73.031791
60.423530
42.213062
23.595466
2.199228
-27.541780
-43.990818
-32.110818
-7.376897
15.719111
19.789695
-10.068854
-51.668916
-69.112500
-60.402516
-49.086816
-41.581214
-25.509812
-1.352512
23.762677
46.345634
53.634304
41.807378
29.773358
34.176445
52.353228
62.375883
43.725222
8.177230
-12.330849
-6.278275
11.378054
27.252005
41.403815
54.135566
62.744525
65.476427
62.097880
60.090995
68.577833
85.910536
103.865348
115.029998
112.692626
86.800073
38.220807
-6.801575
-32.853274
-52.632583
-67.045607
-68.975409
-66.724040
-59.558319
-40.596273
-25.021972
-27.506026
-36.768757
-33.501380
-12.722748
11.038643
20.683380
18.101711
18.976775
33.760761
51.837722
53.184576
46.900268
58.219318
80.666590
89.842886
83.929536
78.733159
79.566089
78.491667
71.202762
57.055227
37.287208
18.740233
0.827614
-18.710035
-26.397641
-14.004098
7.235717
23.889191
29.502449
27.369051
27.033287
31.971196
34.976261
26.398821
15.169603
21.188657
38.083838
47.008430
50.298312
58.003104
71.799327
87.169701
102.491567
118.548485
127.028556
129.870885
136.766660
133.167105
110.571107
82.924940
56.007867
37.873015
33.216459
26.590592
15.650967
6.060464
-8.849874
-14.638699
5.209707
22.797669
19.889458
20.618712
25.873429
19.681285
17.229244
25.190019
27.029090
13.742655
-12.526336
-33.204411
-45.407637
-72.140703
-100.446512
-108.889396
-118.927628
-143.253435
-161.787160
-150.006061
-106.984235
-61.836102
-26.507187
2.210849
3.834229
-20.270580
-33.849132
-25.587861
-5.265814
22.546815
46.850835
56.203462
52.464669
43.571435
35.109255
32.440986
43.208462
66.084954
87.135541
94.237943
80.862823
46.818520
5.529257
-25.026468
-42.126942
-54.218129
-59.528242
-57.963946
-64.384071
-79.706157
-91.692998
-97.085858
-86.765013
-55.096118
-22.712074
-9.998380
-14.952328
-24.158265
-24.240714
-16.155325
-18.644607
-33.988237
-36.359991
-23.621803
-21.602606
-25.993770
-23.838292
-34.334037
-56.631233
-60.652375
-46.966425
-35.939291
-31.128461
-26.719950
-23.326295
-28.147084
-31.135120
-18.170462
-3.502803
10.228210
38.060969
62.861476
61.023353
33.828282
-1.371940
-14.487084
2.550633
28.422025
47.369302
47.041612
29.664233
21.067449
30.774033
46.081662
54.797138
56.444412
64.742986
79.912485
87.816555
92.430186
103.043816
114.665201
117.186337
106.682869
97.008522
100.544998
99.503412
81.532314
70.440005
74.273104
69.524464
58.909877
58.188947
51.682429
28.760069
6.462887
-6.134791
-19.613996
-38.074105
-45.572044
-37.902366
-35.751641
-44.824214
-56.563492
-70.727909
-73.152944
-53.397680
-36.433452
-31.248691
-21.544050
-21.877639
-37.921589
-34.619193
-9.024299
15.913893
43.024508
67.430611
79.674536
88.772923
85.400107
61.014261
32.255830
0.274241
-29.259822
-33.142264
-24.033814
-19.864916
-6.845165
10.162552
11.624164
-1.475817
-21.162412
-33.031173
-25.402086
-9.567615
3.512777
11.570412
7.288951
-1.844787
2.876547
15.655913
18.893439
13.243732
8.830927
8.160500
3.297716
-11.088486
-27.865692
-42.856372
-57.895550
-66.788163
-62.919757
-47.581658
-27.141197
-9.084865
10.051167
36.721001
63.080691
80.956365
89.846025
90.488305
90.522728
94.091586
92.849213
86.992252
82.224527
68.409117
43.771391
31.075097
38.267390
51.636319
61.446797
52.493594
22.186924
-0.279222
-9.494936
-23.158017
-33.557213
-39.418566
-40.287407
-15.413855
14.177012
22.920051
40.609872
66.766644
67.475773
53.673537
46.585630
43.824927
38.477426
30.216633
31.232634
34.867142
21.065449
11.024423
24.060908
31.406970
20.469729
15.667545
25.237359
35.162141
39.161849
36.968430
21.270974
-5.175291
-23.825460
-27.758939
-25.105782
-21.565280
-18.852148
-14.150280
1.935846
30.051782
50.438336
49.156065
35.557836
15.600497
-11.121674
-37.306327
-61.162289
-83.008002
-94.956432
-88.253195
-63.647749
-43.296869
-45.536494
-59.523033
-73.399562
-84.309195
-92.974121
-106.053712
-115.309075
-111.645478
-107.103451
-102.234443
-88.096942
-75.225368
-70.963762
-65.390713
-56.539888
-54.645117
-59.656081
-59.289797
-50.600893
-43.154509
-42.265831
-42.170539
-35.819096
-27.686876
-24.887040
-22.560013
-19.245211
-22.600414
-27.577373
-25.441220
-23.013458
-21.876591
-11.834030
-0.018231
-6.237902
-27.077792
-37.787105
-29.266800
-16.159470
-7.471301
-2.254967
-8.191050
-23.520605
-27.533432
-19.103327
-16.821139
-20.292128
-19.090606
-18.473791
-26.397119
-35.162090
-33.477046
-20.454685
2.362201
25.705979
35.995977
42.272856
53.309002
59.861956
63.486479
60.473991
40.714438
20.851306
13.551334
9.194555
5.176488
10.683908
26.294717
25.249644
6.374490
22.389511
65.410692
69.625157
46.084881
33.585721
12.109972
-26.113236
-34.541776
-2.055480
-3.904144
-45.532442
-27.939614
11.582630
-27.155287
-69.741772
-41.756264
6.080142
28.819916
13.692056
-2.804561
9.223337
-15.856612
-63.769491
-36.805372
8.564030
-7.031084
-21.850476
-5.433443
6.549706
18.017468
38.848476
55.506942
61.642894
63.135284
63.222028
63.305004
69.662046
71.175499
54.641507
41.877177
42.741472
30.789787
-0.761248
-35.845088
-65.480053
-81.413842
-82.737076
-81.407720
-79.033914
-68.742052
-56.712866
-53.170490
-51.293907
-41.895538
-40.912695
-60.263605
-74.328186
-63.899669
-47.327907
-43.636226
-50.682191
-58.056949
-62.530141
-70.218392
-78.629995
-70.658016
-38.866121
-3.128087
10.775818
2.924282
-7.436016
-8.447535
-0.535057
11.861991
22.551029
24.821733
17.546875
4.994641
-5.959955
-5.046228
10.085964
27.868981
34.635496
24.059456
9.177229
9.071371
12.316614
3.807399
-0.873036
3.213140
5.279448
12.274514
21.246731
16.483690
9.546479
16.618280
24.071799
13.707225
-5.246206
-13.042456
-14.430815
-16.473371
-2.197930
25.657499
40.660216
41.955105
36.851195
22.427883
7.059204
-8.669871
-29.814453
-40.445363
-39.832352
-45.931953
-51.128448
-47.975402
-47.170460
-44.929439
-39.096894
-39.368843
-40.008307
-37.166223
-37.136117
-35.240061
-31.642281
-28.827613
-16.026397
2.474175
11.693604
13.235131
6.587729
-11.583370
-27.622195
-31.627484
-30.371735
-29.632606
-33.472185
-44.799375
-59.207502
-75.435333
-91.961076
-99.168206
-96.258639
-92.261881
-88.961207
-79.620819
-64.983549
-60.043152
-67.258788
-71.543536
-70.976284
-67.118269
-49.965907
-18.914999
19.050353
61.233068
100.422075
123.254261
123.663281
113.799225
100.598001
68.029360
21.550345
-3.816322
-3.411621
0.937697
8.148223
21.120422
23.289623
8.237018
-5.249476
0.373741
20.944226
34.452811
27.596801
14.508013
15.234611
27.111197
26.309731
7.349246
-3.347044
-2.264028
-2.530043
8.895527
19.773666
3.839408
-8.993776
4.915301
22.533976
35.213031
45.065589
38.613443
16.478441
4.929519
13.682170
19.147247
18.811524
38.586951
73.302047
100.804674
123.672861
143.163930
146.170304
129.719564
102.828973
76.429693
56.515063
38.978831
26.979652
34.375871
53.191570
65.098073
75.055877
81.669997
68.653195
49.397300
47.819124
54.113686
50.079965
36.815648
23.950466
19.889597
25.364180
36.508576
51.324606
60.330666
56.115470
49.959686
51.039704
53.591491
51.023009
