EVENT_NAME: 202302060117
EVENT_ID: -1
EVENT_DATE_YYYYMMDD: 20230206
EVENT_TIME_HHMMSS: 011732
EVENT_LATITUDE_DEGREE: 37.288
EVENT_LONGITUDE_DEGREE: 37.043
EVENT_DEPTH_KM: 8.6
HYPOCENTER_REFERENCE: AFAD
MAGNITUDE_W: 7.7
MAGNITUDE_W_REFERENCE: AFAD
MAGNITUDE_L: 
MAGNITUDE_L_REFERENCE: 
FOCAL_MECHANISM: 
NETWORK: TK
STATION_CODE: 3116
STATION_NAME: 
STATION_LATITUDE_DEGREE: 36.61618
STATION_LONGITUDE_DEGREE: 36.20661
STATION_ELEVATION_M: 33.0
LOCATION: Kahramanmaras_Pazarck_Turkiye
SENSOR_DEPTH_M: 
VS30_M/S: 870
SITE_CLASSIFICATION_EC8: A
MORPHOLOGIC_CLASSIFICATION: 
EPICENTRAL_DISTANCE_KM: 105.38
EARTHQUAKE_BACKAZIMUTH_DEGREE: 
DATE_TIME_FIRST_SAMPLE_YYYYMMDD_HHMMSS: 20230206_011730
DATE_TIME_FIRST_SAMPLE_PRECISION: millisecond
SAMPLING_INTERVAL_S: 0.01
NDATA: 12500
DURATION_S: 
STREAM: HNN
UNITS: cm/s^2
INSTRUMENT: sensor = CMG-5T/GURALP | digitizer = 
INSTRUMENT_ANALOG/DIGITAL: 
INSTRUMENTAL_FREQUENCY_HZ: 
INSTRUMENTAL_DAMPING: 
FULL_SCALE_G: 
N_BIT_DIGITAL_CONVERTER: 
PGA_CM/S^2: 155.976
TIME_PGA_S: 
BASELINE_CORRECTION: BASELINE REMOVED
FILTER_TYPE: BUTTERWORTH
FILTER_ORDER: 2
LOW_CUT_FREQUENCY_HZ: 0.016
HIGH_CUT_FREQUENCY_HZ: 33.0
LATE/NORMAL_TRIGGERED: NT
DATABASE_VERSION: 
HEADER_FORMAT: DYNA 1.2
DATA_TYPE: Acceleration
PROCESSING: Manual Paolucci et al., 2011
DATA_TIMESTAMP_YYYYMMDD_HHMMSS: 
DATA_LICENSE: U (unknown license)
DATA_CITATION: Turkish Accelerometric Archive v 1.0 - Disaster And Emergency Management Presidency, Earthquake Department
DATA_CREATOR: AFAD
ORIGINAL_DATA_MEDIATOR_CITATION: : AFAD - Disaster And Emergency Management Presidency
ORIGINAL_DATA_MEDIATOR: AFAD PROCESS SERVICE
ORIGINAL_DATA_CREATOR_CITATION: AFAD PROCESS SERVICE
ORIGINAL_DATA_CREATOR: network: TK
USER1: GuestUser
USER2: 
USER3: 
USER4: 
USER5: 
[...]
-0.191393
2.701864
4.613024
0.883063
-4.800861
-4.440842
-0.980742
-1.675497
-3.186820
0.023054
5.427741
9.003138
10.322724
10.600178
10.236998
8.291851
5.424447
3.968680
4.550941
6.583230
9.212988
10.498618
8.478137
2.840539
-3.670520
-7.452890
-9.212954
-11.099168
-10.820459
-6.216366
-0.746056
1.735150
2.187852
2.289636
2.015196
2.319364
2.388636
-0.755420
-5.972550
-10.442768
-14.345452
-17.240449
-17.995865
-16.942347
-13.288824
-6.311140
1.059115
5.997065
10.444800
16.046920
18.657155
14.419451
6.894021
2.833625
3.402452
3.927286
2.018785
-0.215081
-1.634988
-2.406172
-1.430137
0.962039
1.282480
-2.409946
-6.369980
-5.998798
-2.862348
-0.606246
1.557909
4.486988
5.809239
4.250328
0.478907
-3.897899
-6.084286
-5.213555
-3.291506
-1.266041
2.318405
8.319404
14.374739
16.705582
14.498166
11.258392
11.621203
16.065851
18.333396
11.960309
1.459435
-1.935813
1.788968
3.419595
2.045119
1.381054
-0.256287
-2.918225
-2.981027
-0.672275
-0.822867
-5.842156
-9.493228
-5.847965
1.491315
9.264026
16.309085
17.765061
14.429494
12.849854
14.522770
17.012025
16.895409
12.534318
6.189435
-0.555151
-4.237355
0.589327
9.181730
10.180629
2.208282
-7.176298
-12.404557
-10.775869
-2.928681
3.578974
4.049075
4.465020
7.802147
8.152686
3.769460
-0.998351
-5.159574
-10.828007
-16.517615
-18.313565
-16.058692
-11.913142
-5.597761
2.488584
6.685277
1.854001
-7.618856
-13.984118
-17.328145
-19.010778
-15.313739
-6.778840
0.889597
6.278292
10.578119
11.395585
7.172840
1.830188
-2.042416
-5.229437
-5.049049
-0.926164
1.387153
1.383384
3.760867
9.109512
14.232779
13.425455
4.379022
-6.048953
-12.022577
-14.796642
-15.299612
-13.424460
-11.327682
-9.697795
-6.681645
-2.264145
3.625528
12.006732
16.742489
9.870838
-2.610967
-8.823360
-7.543793
-1.405487
8.976582
16.581429
15.606622
12.148810
9.498380
2.878486
-5.866591
-12.354673
-17.457132
-19.246234
-16.318426
-13.087391
-9.775544
-3.419875
2.714508
4.103441
0.876884
-3.342514
-3.779440
-0.765706
1.700348
4.086432
7.361896
10.581302
15.004457
17.983890
12.625170
0.067093
-8.776119
-5.097019
6.740751
13.964400
12.077291
7.015956
3.489620
1.753491
0.654637
-0.207543
1.490123
6.043734
7.588298
2.688355
-4.067790
-6.734139
-3.028205
4.519748
9.548385
8.572634
4.039638
-1.086544
-5.142206
-5.416447
-1.472316
2.527762
3.785075
3.241408
1.103951
-2.384378
-4.539238
-5.085672
-8.682379
-17.418883
-24.508908
-22.706449
-15.900838
-11.626489
-9.318781
-6.342622
-3.311769
0.815819
7.183580
12.714053
13.423896
8.391816
-0.417703
-7.975049
-7.513382
0.253287
4.918624
2.685565
1.017234
2.239422
1.417014
-1.805228
-2.807709
-0.131321
0.026252
-7.005136
-13.774765
-13.075012
-8.737372
-4.269081
1.232016
7.142230
11.572791
11.393070
6.066844
1.977375
1.648308
-0.525370
-3.502093
-2.181501
-2.053637
-5.810796
-4.395651
3.272392
10.130027
14.028370
14.482939
15.188594
19.285223
17.647806
7.020805
-1.937007
-7.122908
-13.386151
-17.977703
-18.952239
-19.944307
-19.817281
-13.316569
-1.886725
8.344565
13.594299
12.161321
9.283745
11.624386
10.743476
-0.481103
-10.019475
-10.838241
-9.153476
-5.200905
2.016038
6.926085
6.426594
0.247420
-8.570267
-12.007315
-9.884223
-8.344478
-5.611827
-0.366343
3.299113
5.693251
5.754027
-0.734509
-8.303762
-7.238866
0.481499
5.172036
3.267207
-2.491353
-8.929613
-12.061785
-9.422836
-4.166488
-1.084485
-0.023239
3.208698
8.013551
8.146737
4.296940
3.937658
7.667694
11.027955
11.737066
8.990950
6.295032
6.199034
2.441622
-10.069501
-27.798944
-40.503406
-36.062694
-15.989115
1.510509
4.076095
-1.263316
-2.520201
2.249214
10.700131
20.300564
24.970654
21.487070
10.547061
-5.611703
-16.768949
-14.361178
-4.323189
4.807705
9.086637
5.781686
0.585409
3.180732
10.230290
10.722544
2.873590
-5.746861
-9.042465
-8.657890
-8.894740
-9.896521
-11.012134
-12.738123
-11.485009
-2.465541
11.897584
23.742562
27.917497
25.921307
21.060340
11.845991
0.039004
-5.063848
-3.244737
-2.409926
-2.196135
-1.439552
-2.806159
-3.355591
-2.673040
-6.486963
-12.828982
-16.766187
-21.076470
-26.366784
-28.903270
-28.362723
-22.613183
-9.668831
4.004147
10.762905
7.653343
-2.750736
-10.700323
-9.064116
-0.832307
7.388810
11.643938
11.376151
7.578909
3.075079
1.752577
1.790201
-2.456537
-10.777774
-17.105031
-17.442213
-17.265541
-20.959748
-17.756727
-4.912018
2.421294
5.173343
14.765249
22.366965
18.495167
11.043348
2.559086
-12.516794
-24.275697
-18.156533
-4.254030
-1.170137
-3.776431
2.497948
13.320453
20.328917
28.385814
28.969917
4.394431
-27.407969
-38.725196
-36.069493
-28.407938
-13.962109
-2.505631
1.621939
7.780253
19.356431
30.886904
32.234479
19.459574
6.078004
0.861280
-9.540435
-27.626859
-31.613836
-18.892982
-10.607499
-10.127107
-6.104364
3.543053
14.485823
21.162152
18.037313
6.190424
-3.049004
-3.262242
-4.786329
-9.453172
-6.569940
-6.228740
-20.208318
-30.043317
-21.995238
-10.065029
-5.215645
-0.843139
7.241639
15.282270
27.570732
43.128050
42.816287
22.575415
-0.978151
-18.579260
-32.023445
-47.310479
-55.273924
-42.807872
-30.981439
-31.493466
-22.490345
-5.526754
8.074041
21.250652
29.374708
30.730240
18.819476
-4.816500
-9.860501
0.775038
4.083910
13.577778
25.297321
14.014579
-14.308350
-37.576710
-34.298476
-5.765111
18.368193
32.085204
39.316232
24.670866
3.242101
1.404824
1.832657
-9.696379
-19.502643
-21.657507
-15.098438
-3.559568
-2.225399
-6.863071
3.660145
28.033420
48.154222
53.798326
41.611087
13.115408
-20.532552
-38.319575
-26.843483
-4.462345
-1.613226
-19.364672
-35.701233
-38.299079
-29.548634
-11.390973
11.775196
22.243691
10.769455
-6.152460
-12.697706
-9.668106
-4.001686
-4.991286
-13.673929
-13.732128
6.777218
36.213500
56.993325
66.866498
67.608801
52.920946
25.694237
2.435172
-8.767312
-15.213813
-31.012503
-58.596184
-75.143402
-68.713993
-59.953347
-53.567667
-35.293536
-16.328253
-6.249676
10.131658
28.846334
28.606558
13.081343
-1.280725
-13.842609
-28.640598
-39.588157
-41.059576
-36.717497
-28.615786
-11.878955
10.562744
23.608759
19.534941
8.233493
1.799323
-2.647445
-13.702265
-24.421503
-24.922407
-23.174899
-24.293852
-20.127492
-13.432184
-10.868478
-8.276474
-10.668178
-20.889103
-20.669377
-7.618004
2.749728
15.914749
40.526175
63.846818
70.933755
60.489456
44.536448
38.555911
43.891257
44.386610
29.881309
11.683600
4.464678
11.886513
25.259334
26.113033
9.701138
-9.555618
-22.330011
-29.647244
-38.651938
-51.433083
-53.538057
-40.969220
-28.775461
-13.755574
19.426974
58.132131
77.732493
80.783823
81.233306
80.372355
79.033216
74.811107
58.800700
34.661419
13.074880
0.231968
-5.559929
-17.368082
-31.560812
-29.310610
-23.077291
-31.781992
-36.078468
-20.969239
-8.584439
-15.035643
-23.392919
-18.425834
-11.492492
-9.279046
-0.942861
8.198169
6.137147
3.550898
6.807082
6.772306
6.904515
12.796660
17.751615
22.678400
27.413110
14.644018
-16.991836
-44.870495
-63.158074
-77.247966
-79.315815
-70.973083
-65.749208
-65.433352
-64.425502
-56.192918
-40.784132
-29.990625
-28.269997
-32.289076
-38.184420
-32.576276
-12.072625
3.303803
3.561806
1.242858
2.414907
0.600212
-3.769179
-6.698014
-12.770976
-26.484245
-39.395382
-37.841471
-27.033990
-22.431077
-18.568638
-6.742750
3.766335
6.434277
0.234125
-13.551717
-23.430680
-23.519026
-17.947850
-11.313988
-11.193897
-17.269717
-21.749198
-21.221808
-7.953661
15.487666
25.754286
19.962196
17.638645
14.823342
-0.469747
-11.375752
-6.167846
-5.529803
-21.225386
-38.513762
-48.174072
-50.165987
-38.385912
-16.577191
-4.971882
-9.660273
-16.041909
-19.756029
-29.898752
-40.908247
-38.549078
-30.541570
-29.011989
-27.226811
-25.539496
-29.325226
-27.597695
-16.029897
-2.363905
10.052791
15.001546
11.287135
10.702004
14.767995
19.194505
32.315285
44.818851
30.239813
4.209545
1.381531
9.470988
10.629858
17.148335
21.148643
5.988763
-8.545087
-6.753192
-1.497882
5.351380
18.989066
28.760167
29.385637
27.072584
23.854229
20.212059
15.524908
10.701368
11.284873
10.542277
-2.683516
-17.952721
-20.733392
-15.695636
-12.762063
-12.580498
-11.552292
-9.215324
-5.647662
-1.948511
-2.747020
-3.346582
5.066945
14.223436
13.632484
7.095834
0.021387
-5.453233
-9.259635
-15.959555
-25.763388
-27.881326
-18.962374
-14.055251
-18.388343
-19.111314
-16.324739
-18.418307
-16.891380
-7.511352
-9.256712
-24.698999
-28.714481
-26.020560
-41.205030
-58.406534
-57.497967
-51.675624
-49.279594
-49.469478
-52.320832
-47.949129
-35.509370
-25.875405
-23.405997
-30.447343
-38.844159
-38.426765
-42.091307
-54.802916
-58.447320
-49.451112
-39.719693
-29.879477
-10.491143
14.505605
30.816659
43.310810
57.344062
60.275287
55.368159
49.591345
33.309573
14.164514
6.761156
6.979851
11.172888
17.502054
21.692291
24.097491
21.661098
17.093210
23.815131
33.782642
27.141214
11.578824
-3.513542
-20.202422
-20.567993
0.234129
16.672131
24.941734
33.869040
39.389863
44.055530
47.512285
43.993655
37.999661
28.553503
11.765421
-1.362291
0.269126
12.941653
24.697361
26.924275
18.643879
4.364211
-9.718575
-23.403835
-36.198046
-36.050781
-19.059472
-3.312155
-0.543988
1.433552
8.652897
5.554015
-9.827292
-21.815928
-26.943127
-27.874059
-29.437718
-34.072451
-32.418504
-35.160083
-53.331461
-62.122009
-61.356040
-69.995439
-65.728330
-42.485697
-31.009734
-32.628699
-33.020355
-32.885505
-32.602350
-33.128237
-31.557746
-21.590979
-10.519831
-4.696795
-3.201409
-7.706612
-9.220123
-0.261987
10.499043
20.532375
30.494681
39.703649
54.401827
64.324541
55.752828
40.514672
26.628089
16.366172
17.360489
21.255710
25.627159
36.328011
39.862491
36.825634
40.268700
42.297256
39.763461
33.345361
15.177914
-3.226048
-2.856714
12.650005
28.534442
41.349855
54.502823
59.585486
49.207232
32.867163
19.461600
5.943048
-9.962089
-16.544297
-10.289691
-13.045729
-28.484067
-37.366114
-45.716176
-59.426608
-55.317557
-34.630724
-26.775930
-28.917383
-21.166475
-9.241281
-1.312511
4.865086
8.672766
15.084705
24.790063
27.264013
26.214112
29.720872
33.478436
39.190194
41.539982
22.919545
-1.526643
-2.701018
8.181631
12.431143
14.689345
13.931542
4.911927
-2.409239
0.925298
1.531433
-11.819991
-18.061905
-9.051385
-7.630385
-4.861806
22.985498
60.766290
85.574018
94.285062
98.437159
106.921991
105.771894
91.581766
84.274140
84.486819
83.999776
83.589274
75.211062
58.049299
42.845993
31.433602
19.426134
-4.939786
-44.506901
-77.890021
-92.725194
-89.833001
-68.459927
-45.549721
-42.258167
-53.503483
-58.582781
-46.299389
-27.555573
-18.397232
-14.310694
-3.752936
2.918408
-10.435358
-34.235539
-55.082099
-78.255355
-102.699666
-113.103230
-99.978042
-75.065185
-62.031976
-60.028382
-50.126222
-35.433984
-27.090852
-16.328708
-0.912933
-8.312357
-46.315393
-77.920310
-92.165850
-106.264677
-105.333373
-86.822851
-73.158498
-56.244788
-39.522397
-43.032805
-43.041783
-25.193792
-16.993675
-27.227429
-38.598903
-29.848859
-1.402117
15.046064
12.403934
9.621050
2.208389
-16.563020
-38.401258
-58.856559
-76.462244
-92.058136
-104.299504
-106.629997
-100.943152
-90.071596
-70.406958
-51.398942
-45.844220
-50.096949
-56.789774
-46.882838
-4.309801
35.373924
38.786935
28.476031
17.558401
-1.011328
-12.375838
-9.069388
-8.697147
-24.762205
-49.398189
-62.258368
-55.075583
-35.143501
-9.215365
16.807874
32.241080
32.229423
23.120656
9.681493
1.166242
11.329662
32.354608
50.053977
61.720172
57.743617
40.543849
33.926690
40.507776
47.129534
59.075606
74.674778
72.298894
54.824850
48.608245
60.291110
79.222131
92.491948
92.601190
93.519701
105.629846
108.985485
92.177337
70.797389
53.027834
44.467931
61.451753
94.102581
112.244553
112.971739
105.325452
90.489328
75.802532
62.012734
46.920843
40.080568
42.542077
51.946296
65.047561
58.608559
28.910806
5.605153
-5.687607
-16.871307
-20.698778
-15.495592
-12.642674
-10.921248
-7.241885
-8.725006
-9.878654
1.528765
13.739824
14.735799
20.550145
35.935472
37.177944
21.425481
14.005242
17.250885
7.038877
-22.032477
-48.159198
-50.421183
-32.850110
-22.225009
-27.764191
-31.981857
-32.643155
-30.930425
-10.277058
20.754194
41.086522
52.638847
42.438676
4.411128
-23.157274
-30.218184
-43.002705
-54.418384
-48.206268
-33.840528
-15.419043
14.750464
42.353212
37.575303
7.003600
-12.192661
-4.018641
18.617609
30.245908
19.273358
3.992927
0.487250
2.938171
0.261879
-14.420179
-41.286071
-68.360680
-80.341351
-84.871256
-99.243189
-109.228557
-91.682240
-57.091727
-35.549489
-40.646230
-58.003666
-69.791515
-67.023417
-42.882738
-11.413961
3.824281
4.980746
2.365688
-0.754885
-1.251738
-6.278280
-20.064358
-29.109999
-30.074281
-31.855181
-25.108799
1.720011
30.259259
28.635635
-8.644772
-46.825801
-49.738059
-17.835281
27.000338
57.016047
55.485493
37.783690
21.417933
10.239890
7.067719
1.021833
-10.438053
-15.901520
-31.698881
-60.853776
-66.125049
-42.000998
-12.194072
13.807258
22.821347
13.123017
0.805629
-19.701263
-47.194605
-52.396929
-33.467578
-12.906827
4.020749
7.433913
-10.378061
-12.341575
33.795842
101.189483
149.376552
155.976195
119.089737
70.380321
37.538022
17.883538
2.183321
-22.813073
-56.657409
-77.521855
-84.138892
-85.536718
-75.441157
-52.195463
-17.489893
20.021727
44.303387
62.305131
81.235954
87.651605
84.110128
80.555371
67.783592
38.976612
7.927651
-4.574409
-0.519174
7.145615
25.175874
44.025662
40.888504
39.097887
59.655912
74.302406
69.070135
53.884490
26.556677
-7.641299
-32.745777
-42.319029
-35.044768
-18.940714
-12.480416
-19.483084
-31.697092
-48.574344
-65.328552
-75.635479
-85.919582
-96.971087
-101.076969
-94.828950
-76.556505
-52.274045
-30.915269
-11.877979
1.951619
1.763678
-6.303151
0.877199
32.857830
64.115987
68.551685
55.397945
38.557501
14.314854
-9.676906
-18.975266
-17.187884
-9.118274
5.192683
17.414993
26.199506
43.738030
71.631406
95.600782
111.507845
129.310302
141.687873
128.418916
95.827452
69.513599
61.480873
68.140288
78.441378
78.084794
58.332998
31.123046
23.657391
32.857653
26.781175
8.314724
5.976856
22.077001
44.561609
62.055943
62.394209
48.129341
37.460283
40.470323
38.543660
18.249715
1.788207
-4.098729
-12.004867
-13.151292
-6.749436
1.432522
18.991137
34.193477
33.757831
28.470967
28.292199
43.624722
70.909479
76.746051
60.007871
56.315130
57.030377
40.918877
37.210092
54.053352
59.111729
54.988299
57.135747
59.167567
57.692715
45.655717
20.648365
-0.346631
-7.199522
-1.812777
14.851213
43.900329
72.023734
71.284286
47.540874
29.060808
14.598358
4.232730
3.443051
-9.728272
-36.820697
-52.220113
-61.266438
-73.293708
-69.507366
-48.028358
-29.871201
-20.545732
-12.720755
-5.792473
-7.211250
-19.671639
-24.668111
-5.428002
17.700171
21.626110
17.888176
23.450719
39.193738
49.044024
39.117756
33.585611
48.101752
48.900556
26.826448
12.006904
7.089683
3.170088
12.955436
33.944614
44.115459
41.428231
32.209389
11.469734
-17.510831
-36.149079
-24.637394
5.751212
13.546662
-4.613180
-16.031955
-18.252072
-21.740855
-20.439882
-10.503237
10.243321
32.757354
33.201011
20.557300
28.147986
53.293329
72.606736
78.605071
74.203565
68.373099
63.721578
54.778966
46.555960
42.485495
39.565832
39.373681
40.086210
46.841363
64.068707
73.615442
72.115674
78.467365
93.491693
104.183140
101.660760
97.518271
107.350507
104.857917
73.339586
44.856981
25.271565
-1.704350
-23.985661
-34.467860
-34.853632
-20.205914
-7.181559
-13.234311
-25.512092
-39.703571
-67.714095
-99.513066
-117.218038
-116.351687
-101.696438
-95.727492
-107.725824
-106.040808
-77.463661
-49.887670
-29.450527
2.453622
37.979281
53.842966
47.837639
36.235577
35.542337
42.864947
42.463560
34.290266
25.029523
16.067824
10.866055
2.960757
-15.229218
-29.995187
-22.736886
6.928830
38.832082
53.541242
49.439842
30.113427
4.559739
-16.386435
-39.512312
-66.270184
-80.976813
-82.631196
-77.615613
-61.711714
-44.652690
-42.108773
-36.851688
-20.880411
-31.607431
-66.156621
-81.213849
-85.872182
-82.077510
-45.815971
-22.050402
-44.570363
-70.905663
-81.986550
-84.594858
-79.397376
-75.846647
-62.098204
-34.576832
-22.165293
-20.498706
-13.192842
-17.419330
-34.351008
-35.571105
-5.119451
39.803371
68.715694
77.795809
80.533506
77.579289
68.826495
63.435678
69.690437
86.049982
94.792268
76.628201
41.308962
14.804701
-4.421006
-23.285455
-22.883612
-1.522682
21.252071
34.347916
21.989950
-7.000486
-13.516811
1.794274
14.711738
17.795291
2.943795
-9.799972
8.111714
31.607327
40.732268
48.012327
47.446472
41.888812
44.813095
48.074368
56.136211
70.272645
65.744027
44.867634
29.839830
21.813029
11.986034
-5.705117
-25.834231
-37.394653
-42.999665
-49.313545
-52.318880
-43.100425
-24.197117
-9.750099
-0.222994
22.119353
61.096847
87.417433
79.050354
60.171816
55.911296
60.043549
68.610884
82.459633
96.812276
107.151060
108.360648
106.254203
105.621532
98.377630
88.257200
79.153478
69.106538
68.489371
73.882268
73.202715
71.054451
66.328935
57.837333
51.827098
38.792885
14.134061
-4.700219
-8.382429
-4.967613
2.241579
19.696041
41.295933
48.979405
45.341842
48.100356
55.744987
52.290009
35.254397
23.865371
32.175914
41.032580
30.594578
18.114760
22.676514
32.123708
28.769432
10.211530
-14.305883
-28.741351
-31.025159
-37.188386
-47.307728
-50.419771
-52.337043
-60.651414
-73.837990
-84.473779
-88.383394
-95.540057
-100.926437
-91.070320
-83.865675
-90.158366
-91.552351
-83.142526
-76.546802
-74.511937
-66.698721
-52.683313
-52.749653
-74.234429
-96.188253
-97.603743
-86.617022
-83.616851
-78.432696
-59.676274
-45.077516
-33.451612
-9.076495
15.295624
27.455986
47.231220
84.173734
104.309957
98.349034
98.447779
97.686551
86.455523
81.098909
66.857349
49.014932
38.712992
2.301171
-40.503764
-50.965996
-41.806360
-11.556003
19.126833
24.086520
38.453232
59.369423
43.843740
-4.073532
-41.125392
-11.252604
62.031229
76.008200
32.289090
13.019247
17.840335
26.404230
51.009429
54.738880
15.050021
-12.493260
-8.951530
-6.952517
-4.203806
2.040343
-7.081103
-18.743792
-14.924397
-5.826540
1.787123
-1.045653
-23.726177
-48.260182
-64.904170
-81.274296
-86.868115
-81.208018
-79.983734
-74.105827
-55.186527
-41.591533
-43.325144
-53.326101
-61.399133
-55.176468
-38.275497
-25.580836
-14.848321
-2.314448
5.660189
11.136877
19.150487
27.115226
29.130457
24.407252
23.423818
31.352074
30.768125
-0.280013
-53.159985
-93.339580
-108.197751
-111.010062
-103.873874
-76.935567
-30.156548
12.130018
24.792814
22.146133
23.225764
15.364439
-6.931346
-28.983092
-40.304072
-42.775820
-44.209228
-41.093731
-29.774472
-16.858744
2.406637
25.657844
33.176206
22.071503
-0.813140
-25.534529
-29.366308
-9.225718
7.033735
-3.011799
-29.568445
